SL-14 R/B               
1 21423U 91042B   25347.32224621  .00000734  00000+0  89998-4 0  9991
2 21423  82.4927 301.1766 0017503 159.9296 200.2610 14.81739876840284
ERS-1                   
1 21574U 91050A   25347.29303846  .00000557  00000+0  19264-3 0  9991
2 21574  98.7906 358.3617 0033016  98.4757 262.0175 14.39365466803300
ARIANE 40 R/B           
1 21610U 91050F   25347.13323446  .00000551  00000+0  17783-3 0  9991
2 21610  98.2164  37.5494 0002761 359.4981   0.6206 14.42813922806519
INTERCOSMOS 25          
1 21819U 91086A   25347.13074371  .00002323  00000+0  46210-3 0  9997
2 21819  82.6074   2.3399 1486594 303.5533  43.2079 12.11728424486202
SL-8 R/B                
1 21876U 92008B   25347.34374113  .00000176  00000+0  16546-3 0  9998
2 21876  82.9265 331.9970 0035151  18.1392  92.2245 13.75959025697540
SL-8 R/B                
1 21938U 92020B   25347.14220005  .00000136  00000+0  12507-3 0  9998
2 21938  82.9306 218.0188 0028918 177.0229 294.8248 13.75527307689232
USA 81                  
1 21949U 92023A   25347.24361222  .00000289  00000+0  99851-4 0  9998
2 21949  85.0081 181.2857 0001389  65.8250 294.3088 14.32327188 82416
COSMOS 2219             
1 22219U 92076A   25347.29053572  .00000010  00000+0  30214-4 0  9998
2 22219  71.0579 198.6816 0019093 326.1287  33.8614 14.14062619706166
SL-16 R/B               
1 22220U 92076B   25347.28499176 -.00000026  00000+0  11041-4 0  9998
2 22220  71.0005  10.3836 0014762 233.3763 203.0725 14.16840920709595
COSMOS 2221             
1 22236U 92080A   25347.28613674  .00002920  00000+0  25908-3 0  9991
2 22236  82.5047   1.8026 0016061 119.9654 240.3164 14.95764755767877
SL-16 R/B               
1 22285U 92093B   25347.30946386  .00000379  00000+0  21836-3 0  9993
2 22285  71.0201 185.5999 0002182  69.6084 290.5274 14.15429945700936
COSMOS 2228             
1 22286U 92094A   25347.29199324  .00004015  00000+0  34831-3 0  9995
2 22286  82.5179 320.0061 0016593 229.2902 130.6879 14.96736152763134
