CCSDS_OMM_VERS = 2.0
CREATION_DATE  = 
ORIGINATOR     = 

OBJECT_NAME    = SL-14 R/B
OBJECT_ID      = 1991-042B
CENTER_NAME    = EARTH
REF_FRAME      = TEME
TIME_SYSTEM    = UTC
MEAN_ELEMENT_THEORY = SGP/SGP4

EPOCH          = 2025-12-13T07:44:02.072544
MEAN_MOTION    = 14.81739876
ECCENTRICITY   = .00175036
INCLINATION    = 82.4927
RA_OF_ASC_NODE = 301.1766
ARG_OF_PERICENTER = 159.9296
MEAN_ANOMALY   = 200.2610

EPHEMERIS_TYPE = 0
CLASSIFICATION_TYPE = U
NORAD_CAT_ID   = 21423
ELEMENT_SET_NO = 999
REV_AT_EPOCH   = 84028
BSTAR          = .89998269E-4
MEAN_MOTION_DOT = .734E-5
MEAN_MOTION_DDOT = 0

CCSDS_OMM_VERS = 2.0
CREATION_DATE  = 
ORIGINATOR     = 

OBJECT_NAME    = ERS-1
OBJECT_ID      = 1991-050A
CENTER_NAME    = EARTH
REF_FRAME      = TEME
TIME_SYSTEM    = UTC
MEAN_ELEMENT_THEORY = SGP/SGP4

EPOCH          = 2025-12-13T07:01:58.522944
MEAN_MOTION    = 14.39365466
ECCENTRICITY   = .00330162
INCLINATION    = 98.7906
RA_OF_ASC_NODE = 358.3617
ARG_OF_PERICENTER = 98.4757
MEAN_ANOMALY   = 262.0175

EPHEMERIS_TYPE = 0
CLASSIFICATION_TYPE = U
NORAD_CAT_ID   = 21574
ELEMENT_SET_NO = 999
REV_AT_EPOCH   = 80330
BSTAR          = .19263648E-3
MEAN_MOTION_DOT = .557E-5
MEAN_MOTION_DDOT = 0

CCSDS_OMM_VERS = 2.0
CREATION_DATE  = 
ORIGINATOR     = 

OBJECT_NAME    = ARIANE 40 R/B
OBJECT_ID      = 1991-050F
CENTER_NAME    = EARTH
REF_FRAME      = TEME
TIME_SYSTEM    = UTC
MEAN_ELEMENT_THEORY = SGP/SGP4

EPOCH          = 2025-12-13T03:11:51.457344
MEAN_MOTION    = 14.42813922
ECCENTRICITY   = .00027611
INCLINATION    = 98.2164
RA_OF_ASC_NODE = 37.5494
ARG_OF_PERICENTER = 359.4981
MEAN_ANOMALY   = 0.6206

EPHEMERIS_TYPE = 0
CLASSIFICATION_TYPE = U
NORAD_CAT_ID   = 21610
ELEMENT_SET_NO = 999
REV_AT_EPOCH   = 80651
BSTAR          = .17782834E-3
MEAN_MOTION_DOT = .551E-5
MEAN_MOTION_DDOT = 0

CCSDS_OMM_VERS = 2.0
CREATION_DATE  = 
ORIGINATOR     = 

OBJECT_NAME    = INTERCOSMOS 25
OBJECT_ID      = 1991-086A
CENTER_NAME    = EARTH
REF_FRAME      = TEME
TIME_SYSTEM    = UTC
MEAN_ELEMENT_THEORY = SGP/SGP4

EPOCH          = 2025-12-13T03:08:16.256544
MEAN_MOTION    = 12.11728424
ECCENTRICITY   = .14865945
INCLINATION    = 82.6074
RA_OF_ASC_NODE = 2.3399
ARG_OF_PERICENTER = 303.5533
MEAN_ANOMALY   = 43.2079

EPHEMERIS_TYPE = 0
CLASSIFICATION_TYPE = U
NORAD_CAT_ID   = 21819
ELEMENT_SET_NO = 999
REV_AT_EPOCH   = 48620
BSTAR          = .46210049E-3
MEAN_MOTION_DOT = .2323E-4
MEAN_MOTION_DDOT = 0

CCSDS_OMM_VERS = 2.0
CREATION_DATE  = 
ORIGINATOR     = 

OBJECT_NAME    = SL-8 R/B
OBJECT_ID      = 1992-008B
CENTER_NAME    = EARTH
REF_FRAME      = TEME
TIME_SYSTEM    = UTC
MEAN_ELEMENT_THEORY = SGP/SGP4

EPOCH          = 2025-12-13T08:14:59.233632
MEAN_MOTION    = 13.75959025
ECCENTRICITY   = .00351514
INCLINATION    = 82.9265
RA_OF_ASC_NODE = 331.9970
ARG_OF_PERICENTER = 18.1392
MEAN_ANOMALY   = 92.2245

EPHEMERIS_TYPE = 0
CLASSIFICATION_TYPE = U
NORAD_CAT_ID   = 21876
ELEMENT_SET_NO = 999
REV_AT_EPOCH   = 69754
BSTAR          = .16545795E-3
MEAN_MOTION_DOT = .176E-5
MEAN_MOTION_DDOT = 0

CCSDS_OMM_VERS = 2.0
CREATION_DATE  = 
ORIGINATOR     = 

OBJECT_NAME    = SL-8 R/B
OBJECT_ID      = 1992-020B
CENTER_NAME    = EARTH
REF_FRAME      = TEME
TIME_SYSTEM    = UTC
MEAN_ELEMENT_THEORY = SGP/SGP4

EPOCH          = 2025-12-13T03:24:46.084320
MEAN_MOTION    = 13.75527307
ECCENTRICITY   = .00289181
INCLINATION    = 82.9306
RA_OF_ASC_NODE = 218.0188
ARG_OF_PERICENTER = 177.0229
MEAN_ANOMALY   = 294.8248

EPHEMERIS_TYPE = 0
CLASSIFICATION_TYPE = U
NORAD_CAT_ID   = 21938
ELEMENT_SET_NO = 999
REV_AT_EPOCH   = 68923
BSTAR          = .12506855E-3
MEAN_MOTION_DOT = .136E-5
MEAN_MOTION_DDOT = 0

CCSDS_OMM_VERS = 2.0
CREATION_DATE  = 
ORIGINATOR     = 

OBJECT_NAME    = USA 81
OBJECT_ID      = 1992-023A
CENTER_NAME    = EARTH
REF_FRAME      = TEME
TIME_SYSTEM    = UTC
MEAN_ELEMENT_THEORY = SGP/SGP4

EPOCH          = 2025-12-13T05:50:48.095808
MEAN_MOTION    = 14.32327188
ECCENTRICITY   = .00013891
INCLINATION    = 85.0081
RA_OF_ASC_NODE = 181.2857
ARG_OF_PERICENTER = 65.8250
MEAN_ANOMALY   = 294.3088

EPHEMERIS_TYPE = 0
CLASSIFICATION_TYPE = U
NORAD_CAT_ID   = 21949
ELEMENT_SET_NO = 999
REV_AT_EPOCH   = 8241
BSTAR          = .99850534E-4
MEAN_MOTION_DOT = .289E-5
MEAN_MOTION_DDOT = 0

CCSDS_OMM_VERS = 2.0
CREATION_DATE  = 
ORIGINATOR     = 

OBJECT_NAME    = COSMOS 2219
OBJECT_ID      = 1992-076A
CENTER_NAME    = EARTH
REF_FRAME      = TEME
TIME_SYSTEM    = UTC
MEAN_ELEMENT_THEORY = SGP/SGP4

EPOCH          = 2025-12-13T06:58:22.286208
MEAN_MOTION    = 14.14062619
ECCENTRICITY   = .00190939
INCLINATION    = 71.0579
RA_OF_ASC_NODE = 198.6816
ARG_OF_PERICENTER = 326.1287
MEAN_ANOMALY   = 33.8614

EPHEMERIS_TYPE = 0
CLASSIFICATION_TYPE = U
NORAD_CAT_ID   = 22219
ELEMENT_SET_NO = 999
REV_AT_EPOCH   = 70616
BSTAR          = .30214299E-4
MEAN_MOTION_DOT = .1E-6
MEAN_MOTION_DDOT = 0

CCSDS_OMM_VERS = 2.0
CREATION_DATE  = 
ORIGINATOR     = 

OBJECT_NAME    = SL-16 R/B
OBJECT_ID      = 1992-076B
CENTER_NAME    = EARTH
REF_FRAME      = TEME
TIME_SYSTEM    = UTC
MEAN_ELEMENT_THEORY = SGP/SGP4

EPOCH          = 2025-12-13T06:50:23.288064
MEAN_MOTION    = 14.16840920
ECCENTRICITY   = .00147627
INCLINATION    = 71.0005
RA_OF_ASC_NODE = 10.3836
ARG_OF_PERICENTER = 233.3763
MEAN_ANOMALY   = 203.0725

EPHEMERIS_TYPE = 0
CLASSIFICATION_TYPE = U
NORAD_CAT_ID   = 22220
ELEMENT_SET_NO = 999
REV_AT_EPOCH   = 70959
BSTAR          = .11041105E-4
MEAN_MOTION_DOT = -.26E-6
MEAN_MOTION_DDOT = 0

CCSDS_OMM_VERS = 2.0
CREATION_DATE  = 
ORIGINATOR     = 

OBJECT_NAME    = COSMOS 2221
OBJECT_ID      = 1992-080A
CENTER_NAME    = EARTH
REF_FRAME      = TEME
TIME_SYSTEM    = UTC
MEAN_ELEMENT_THEORY = SGP/SGP4

EPOCH          = 2025-12-13T06:52:02.214336
MEAN_MOTION    = 14.95764755
ECCENTRICITY   = .00160615
INCLINATION    = 82.5047
RA_OF_ASC_NODE = 1.8026
ARG_OF_PERICENTER = 119.9654
MEAN_ANOMALY   = 240.3164

EPHEMERIS_TYPE = 0
CLASSIFICATION_TYPE = U
NORAD_CAT_ID   = 22236
ELEMENT_SET_NO = 999
REV_AT_EPOCH   = 76787
BSTAR          = .25908384E-3
MEAN_MOTION_DOT = .292E-4
MEAN_MOTION_DDOT = 0

CCSDS_OMM_VERS = 2.0
CREATION_DATE  = 
ORIGINATOR     = 

OBJECT_NAME    = SL-16 R/B
OBJECT_ID      = 1992-093B
CENTER_NAME    = EARTH
REF_FRAME      = TEME
TIME_SYSTEM    = UTC
MEAN_ELEMENT_THEORY = SGP/SGP4

EPOCH          = 2025-12-13T07:25:37.677504
MEAN_MOTION    = 14.15429945
ECCENTRICITY   = .00021825
INCLINATION    = 71.0201
RA_OF_ASC_NODE = 185.5999
ARG_OF_PERICENTER = 69.6084
MEAN_ANOMALY   = 290.5274

EPHEMERIS_TYPE = 0
CLASSIFICATION_TYPE = U
NORAD_CAT_ID   = 22285
ELEMENT_SET_NO = 999
REV_AT_EPOCH   = 70093
BSTAR          = .21836437E-3
MEAN_MOTION_DOT = .379E-5
MEAN_MOTION_DDOT = 0

CCSDS_OMM_VERS = 2.0
CREATION_DATE  = 
ORIGINATOR     = 

OBJECT_NAME    = COSMOS 2228
OBJECT_ID      = 1992-094A
CENTER_NAME    = EARTH
REF_FRAME      = TEME
TIME_SYSTEM    = UTC
MEAN_ELEMENT_THEORY = SGP/SGP4

EPOCH          = 2025-12-13T07:00:28.215936
MEAN_MOTION    = 14.96736152
ECCENTRICITY   = .00165938
INCLINATION    = 82.5179
RA_OF_ASC_NODE = 320.0061
ARG_OF_PERICENTER = 229.2902
MEAN_ANOMALY   = 130.6879

EPHEMERIS_TYPE = 0
CLASSIFICATION_TYPE = U
NORAD_CAT_ID   = 22286
ELEMENT_SET_NO = 999
REV_AT_EPOCH   = 76313
BSTAR          = .34831059E-3
MEAN_MOTION_DOT = .4015E-4
MEAN_MOTION_DDOT = 0

